#cP2017  6 18  0  0  0.00000000      96 ORBIT IGS14 HLM  IGS
## 1954      0.00000000   900.00000000 57922 0.0000000000000
+   32   G01G02G03G04G05G06G07G08G09G10G11G12G13G14G15G16G17
+        G18G19G20G21G22G23G24G25G26G27G28G29G30G31G32  0  0
+          0  0  0  0  0  0  0  0  0  0  0  0  0  0  0  0  0
+          0  0  0  0  0  0  0  0  0  0  0  0  0  0  0  0  0
+          0  0  0  0  0  0  0  0  0  0  0  0  0  0  0  0  0
++         2  2  2  0  2  2  2  2  2  2  2  2  2  2  2  2  2
++         2  2  2  2  2  2  2  2  2  2  2  2  2  2  2  0  0
++         0  0  0  0  0  0  0  0  0  0  0  0  0  0  0  0  0
++         0  0  0  0  0  0  0  0  0  0  0  0  0  0  0  0  0
++         0  0  0  0  0  0  0  0  0  0  0  0  0  0  0  0  0
%c G  cc GPS ccc cccc cccc cccc cccc ccccc ccccc ccccc ccccc
%c cc cc ccc ccc cccc cccc cccc cccc ccccc ccccc ccccc ccccc
%f  1.2500000  1.025000000  0.00000000000  0.000000000000000
%f  0.0000000  0.000000000  0.00000000000  0.000000000000000
%i    0    0    0    0      0      0      0      0         0
%i    0    0    0    0      0      0      0      0         0
/* RAPID ORBIT COMBINATION FROM WEIGHTED AVERAGE OF:        
/* cod emr esa gfz jpl ngs sio usn whu                      
/* REFERENCED TO IGS TIME (IGST) AND TO WEIGHTED MEAN POLE: 
/* PCV:IGS14_1930 OL/AL:FES2004  NONE     Y  ORB:CMB CLK:CMB
*  2017  6 18 12  0  0.00000000
PG01 -19037.528182 -13761.315404 -12776.085152     56.007729  5  4  6 117       
PG02  -1567.117552  15726.262667  21866.989667    395.886010  5  5  7 105       
PG03 -13651.329233 -20221.825815  10537.889655    -93.927139  9  6  4  85       
PG04   7165.667819 -13038.003517  22315.323425 999999.999999
PG05   1474.365325  25008.970502   8420.770367    -40.956301  4  4  4  80       
PG06 -18116.466780   8179.519506  17646.380341    365.995652  5  6  4 110       
PG07 -25958.155629  -6665.935114   -231.378696    338.372344  7  3  7 105       
PG08   -942.786850 -18326.436163 -19115.696945    -63.540612  7  5  8  90       
PG09 -18790.769412    648.048794  18743.747881    387.325716  7  5  5 105       
PG10  13040.850162  -8707.509290 -21393.004521    -21.221802  5  5  3  61       
PG11 -14052.143864 -12941.304401 -19001.275549   -696.186192  8  3  5  99       
PG12   9627.685388  24104.811570   5953.356969    381.085385  8  5  7  93       
PG13  -7259.602382  20169.328875 -15825.557168    -85.529365  7  7  7 117       
PG14  18656.731063 -18695.110879   1991.068544    -74.777493  9  5  6 121       
PG15   6921.468233  15618.484840 -20423.788796   -351.922979  6  6  4  46       
PG16   1067.533489 -24565.429696   9369.185605     35.002176  7  8  7 120       
PG17 -21315.674725  13882.554225  -6998.451836   -174.078324  9  5  6  99       
PG18  16668.921854   2051.645107 -20028.521709    620.491592  4  5  2 104       
PG19 -20006.978072  17681.862933    349.227033   -499.245039  6  4  5  87       
PG20  13347.387650  22381.312979  -5304.922774    476.562165  9  6  7 100       
PG21  26047.960572   2017.486740  -4292.658710   -500.124553  8  8  8 108       
PG22 -10017.208173 -24511.806407   1919.094747    -26.510744  8  5  6  56       
PG23 -12257.149253  -9849.176103  21664.195776   -213.756822  8  2  6 103       
PG24  16987.704110  14384.643351 -14754.800737    -36.359829  3  4  7  76       
PG25  15601.814492  13800.750440  16449.283138   -406.877016  6  5  1  70       
PG26   6955.691291 -18801.137187  17374.748330   -489.047519  3  7  4  78       
PG27   9896.138112 -21758.378792 -11397.561394    277.976827  7  2  6  79       
PG28 -13744.741699   4178.267112 -21714.900592    621.952920  8  6  4  63       
PG29  16817.698395   2879.571116  20335.271577    593.909200 10  6  7 130       
PG30 -23582.752188   1967.576881 -12201.511689    153.520813  6  6  6 124       
PG31  16701.363061  -8896.230176  18863.414369    193.921315 11  2  7  95       
PG32  20535.456652 -15658.491000  -6069.155700   -443.114290  6  4  5  65       
*  2017  6 18 12 15  0.00000000
PG01 -17478.150331 -13595.692949 -14984.809969     56.008007  5  5  6 134       
PG02  -3932.390373  15338.780567  21815.732437    395.878746  5  5  6 102       
PG03 -13762.893956 -21299.002830   7958.253416    -93.924866  8  6  4  98       
PG04   9456.675276 -12154.760519  21899.109207 999999.999999
PG05    837.468770  24037.092235  10953.549446    -40.954847  4  4  5  98       
PG06 -19956.081355   7651.504840  15801.626729    366.000281  4  5  5 109       
PG07 -25798.643453  -6851.278683   2597.570385    338.368244  7  3  7  94       
PG08    545.334113 -19827.828423 -17565.680989    -63.541962  7  5  7  80       
PG09 -17421.952673  -1107.331916  19999.752384    387.332995  7  5  5 104       
PG10  13857.227141  -6371.868144 -21710.494688    -21.210936  5  4  3  92       
PG11 -11971.721304 -13506.826076 -20041.496191   -696.188710  8  3  5  99       
PG12   9613.124199  24660.825847   3115.940999    381.084590  7  5  7  81       
PG13  -8615.576182  21155.378151 -13704.472761    -85.529907  8  7  7 119       
PG14  18865.202170 -18528.091731   -876.427237    -74.778325  9  5  6 117       
PG15   5432.406982  17333.615936 -19425.138672   -351.923334  6  6  4  40       
PG16   1543.026809 -23399.626502  11938.990887     35.002926  6  7  6 110       
PG17 -20759.584490  13025.588256  -9682.859538   -174.076631  9  4  5 103       
PG18  17397.842682   4301.581569 -19074.511342    620.493137  5  6  3  93       
PG19 -20065.528158  17482.342098  -2520.323995   -499.243464  7  3  5  99       
PG20  13210.283798  22920.128595  -2567.604707    476.563456  9  6  6  88       
PG21  26408.689740   2391.479757  -1510.023034   -500.122209  8  7  8  97       
PG22  -9689.018685 -24674.985200   -862.297269    -26.521532  8  5  5  90       
PG23 -10639.433566 -11660.572771  21579.772036   -213.757349  8  2  6 100       
PG24  15201.974138  14268.111642 -16678.749671    -36.359557  4  2  6  76       
PG25  16022.708105  15535.817343  14407.490999   -406.882864  6  5  2  61       
PG26   7775.209290 -16881.475896  18935.881374   -489.042166  3  7  3  85       
PG27  10813.028248 -22488.839131  -8827.201887    277.983011  6  2  6  76       
PG28 -14356.691791   1637.903724 -21660.429079    621.956171  8  5  3  67       
PG29  15182.000944   4608.132728  21283.913546    593.905911 10  6  7 118       
PG30 -24731.680365   1408.116047  -9773.679406    153.519747  7  7  5 136       
PG31  18658.270388  -8310.605540  17255.050801    193.919423 10  4  6 107       
PG32  20162.674585 -14851.664835  -8750.218087   -443.122564  6  5  4  56       
*  2017  6 18 12 30  0.00000000
PG01 -15680.221993 -13479.564327 -16940.725130     56.008300  5  5  6 111       
PG02  -6292.545025  15075.081756  21405.381879    395.871517  6  5  5  94       
PG03 -13819.794478 -22090.454587   5241.921717    -93.922574  8  7  5 103       
PG04  11735.589727 -11419.704845  21114.940032 999999.999999
PG05     47.108399  22842.023904  13294.987854    -40.953534  5  5  6 103       
PG06 -21599.303131   7253.767712  13685.539519    366.004879  4  5  5 104       
PG07 -25339.685070  -6992.064129   5383.101527    338.364165  7  3  7 100       
PG08   1833.998291 -21252.885111 -15711.164680    -63.543826  7  5  7  65       
PG09 -16069.039534  -3027.249225  20911.098562    387.340305  7  5  4  85       
PG10  14798.602994  -4069.041389 -21653.251028    -21.200107  5  4  2 102       
PG11  -9827.578363 -14185.859562 -20752.325984   -696.191319  7  3  5  91       
PG12   9528.771246  24908.789885    225.421399    381.083725  7  4  6  88       
PG13  -9738.896993  22034.049431 -11349.601735    -85.531281  9  6  7 126       
PG14  18862.948441 -18131.304240  -3728.632700    -74.779860  9  5  6 110       
PG15   4096.516980  19011.501556 -18093.551083   -351.924122  5  5  3  47       
PG16   2166.948607 -21992.178726  14297.537837     35.003148  5  6  6  95       
PG17 -20056.022190  11912.068980 -12196.605401   -174.075171 10  4  5 113       
PG18  18173.781163   6393.721774 -17777.517717    620.494216  7  5  5  85       
PG19 -19912.359036  17056.296220  -5347.350910   -499.242173  7  4  5 103       
PG20  12955.939985  23189.123757    213.800670    476.564588  9  6  6  83       
PG21  26473.198928   2706.653640   1298.681219   -500.120145  8  6  7  97       
PG22  -9238.583838 -24568.485232  -3628.762623    -26.532829  8  5  5  71       
PG23  -9129.782260 -13530.708215  21131.319536   -213.757722  8  2  6  88       
PG24  13212.906038  14219.035379 -18320.127301    -36.359813  5  2  6  85       
PG25  16447.800100  17014.574228  12117.852885   -406.888724  6  6  3  53       
PG26   8752.786418 -14860.811470  20170.174854   -489.036803  3  7  3  90       
PG27  11504.573716 -23030.209065  -6103.350180    277.989251  6  3  5  64       
PG28 -15097.518217   -836.454914 -21210.449492    621.958388  9  6  3  84       
PG29  13586.917315   6489.351002  21865.776580    593.902440  9  6  7 104       
PG30 -25630.056649    965.193605  -7178.948931    153.518518  9  7  6 107       
PG31  20448.022059  -7866.616481  15355.618598    193.917021 10  5  6 108       
PG32  19650.440371 -13793.678894 -11280.111218   -443.130796  6  5  3  42       
EOF
